{
  "norad_id": 64597,
  "name": "STARLINK-34486",
  "history": [
    {
      "epoch": "2026-03-28T20:32:10.287168Z",
      "apogee_km": 475.89731921466137,
      "perigee_km": 474.5176039076605,
      "latitude_deg": 6.539324159998119e-06,
      "longitude_deg": 112.29791437256547,
      "height_km": 475.90335035241526,
      "semi_major_axis_km": 6853.344461561161,
      "eccentricity": 0.00010066,
      "inclination_deg": 53.1585,
      "raan_deg": 246.6109,
      "arg_perigee_deg": 72.9349,
      "mean_anomaly_deg": 287.1762,
      "mean_motion_rev_day": 15.30202548
    },
    {
      "epoch": "2026-03-28T22:06:13.529088Z",
      "apogee_km": 475.8898487636234,
      "perigee_km": 474.51643939874884,
      "latitude_deg": 1.4763584292995683e-06,
      "longitude_deg": 88.41642487744096,
      "height_km": 475.91128916484564,
      "semi_major_axis_km": 6853.340144081186,
      "eccentricity": 0.0001002,
      "inclination_deg": 53.1584,
      "raan_deg": 246.3073,
      "arg_perigee_deg": 73.9222,
      "mean_anomaly_deg": 286.1889,
      "mean_motion_rev_day": 15.30203994
    },
    {
      "epoch": "2026-03-29T21:37:01.490880Z",
      "apogee_km": 475.94110361114144,
      "perigee_km": 474.382663445027,
      "latitude_deg": 6.096060919885595e-05,
      "longitude_deg": 90.19927097402473,
      "height_km": 475.9336877661997,
      "semi_major_axis_km": 6853.298883528084,
      "eccentricity": 0.0001137,
      "inclination_deg": 53.1585,
      "raan_deg": 241.7556,
      "arg_perigee_deg": 80.6712,
      "mean_anomaly_deg": 279.4418,
      "mean_motion_rev_day": 15.30217813
    },
    {
      "epoch": "2026-03-29T21:37:01.491744Z",
      "apogee_km": 475.9412406771198,
      "perigee_km": 474.3825263790495,
      "latitude_deg": 5.913998488925405e-05,
      "longitude_deg": 90.19926600765133,
      "height_km": 475.9336655480308,
      "semi_major_axis_km": 6853.298883528084,
      "eccentricity": 0.00011372,
      "inclination_deg": 53.1585,
      "raan_deg": 241.7556,
      "arg_perigee_deg": 80.6712,
      "mean_anomaly_deg": 279.4418,
      "mean_motion_rev_day": 15.30217813
    },
    {
      "epoch": "2026-03-30T10:09:27.154944Z",
      "apogee_km": 476.158188313314,
      "perigee_km": 474.2221233917853,
      "latitude_deg": 2.7347030538569236e-05,
      "longitude_deg": -100.84930561567408,
      "height_km": 476.3262391933279,
      "semi_major_axis_km": 6853.327155852549,
      "eccentricity": 0.00014125,
      "inclination_deg": 53.1593,
      "raan_deg": 239.329,
      "arg_perigee_deg": 104.2464,
      "mean_anomaly_deg": 255.8694,
      "mean_motion_rev_day": 15.30208344
    },
    {
      "epoch": "2026-03-30T16:25:40.070784Z",
      "apogee_km": 475.94825549804136,
      "perigee_km": 474.49534343255436,
      "latitude_deg": -1.4387703901884566e-05,
      "longitude_deg": 163.62573739340675,
      "height_km": 476.1208035764665,
      "semi_major_axis_km": 6853.358799465298,
      "eccentricity": 0.000106,
      "inclination_deg": 53.1594,
      "raan_deg": 238.1154,
      "arg_perigee_deg": 90.0558,
      "mean_anomaly_deg": 270.0564,
      "mean_motion_rev_day": 15.30197746
    },
    {
      "epoch": "2026-03-31T19:04:34.376448Z",
      "apogee_km": 475.3087399107826,
      "perigee_km": 474.9386638328815,
      "latitude_deg": 3.1925000189615756e-05,
      "longitude_deg": 117.64768813086485,
      "height_km": 475.8419602450818,
      "semi_major_axis_km": 6853.260701871832,
      "eccentricity": 2.7e-05,
      "inclination_deg": 53.1592,
      "raan_deg": 232.958,
      "arg_perigee_deg": 348.6759,
      "mean_anomaly_deg": 11.4236,
      "mean_motion_rev_day": 15.30230601
    },
    {
      "epoch": "2026-04-01T15:27:16.074720Z",
      "apogee_km": 476.38202119105335,
      "perigee_km": 473.9203200801612,
      "latitude_deg": -2.983010268468827e-05,
      "longitude_deg": 167.1927954327596,
      "height_km": 475.9193683428783,
      "semi_major_axis_km": 6853.288170635607,
      "eccentricity": 0.0001796,
      "inclination_deg": 53.1605,
      "raan_deg": 229.0138,
      "arg_perigee_deg": 83.9737,
      "mean_anomaly_deg": 276.1468,
      "mean_motion_rev_day": 15.30221401
    },
    {
      "epoch": "2026-04-02T18:06:09.902592Z",
      "apogee_km": 475.8401852849347,
      "perigee_km": 474.4900847643348,
      "latitude_deg": -4.202461853701283e-05,
      "longitude_deg": 121.21579831833243,
      "height_km": 475.93467887664633,
      "semi_major_axis_km": 6853.3021350246345,
      "eccentricity": 9.85e-05,
      "inclination_deg": 53.1635,
      "raan_deg": 223.8555,
      "arg_perigee_deg": 78.9545,
      "mean_anomaly_deg": 281.1566,
      "mean_motion_rev_day": 15.30216724
    },
    {
      "epoch": "2026-04-02T18:06:09.903456Z",
      "apogee_km": 475.84011675191414,
      "perigee_km": 474.4901532973563,
      "latitude_deg": -4.1131767614427896e-05,
      "longitude_deg": 121.21579537361765,
      "height_km": 475.9346920083174,
      "semi_major_axis_km": 6853.3021350246345,
      "eccentricity": 9.849e-05,
      "inclination_deg": 53.1635,
      "raan_deg": 223.8555,
      "arg_perigee_deg": 78.9545,
      "mean_anomaly_deg": 281.1566,
      "mean_motion_rev_day": 15.30216724
    },
    {
      "epoch": "2026-04-03T17:36:58.675680Z",
      "apogee_km": 476.2144464080184,
      "perigee_km": 474.61482745595913,
      "latitude_deg": -1.790552449116867e-05,
      "longitude_deg": 122.99742809379276,
      "height_km": 475.83865331625947,
      "semi_major_axis_km": 6853.5516369319885,
      "eccentricity": 0.0001167,
      "inclination_deg": 53.1589,
      "raan_deg": 219.306,
      "arg_perigee_deg": 53.6223,
      "mean_anomaly_deg": 306.4885,
      "mean_motion_rev_day": 15.30133164
    },
    {
      "epoch": "2026-04-04T12:25:37.566624Z",
      "apogee_km": 476.07256288199005,
      "perigee_km": 474.2494485465095,
      "latitude_deg": 6.531633383560676e-05,
      "longitude_deg": -163.57768824399335,
      "height_km": 475.7210829547313,
      "semi_major_axis_km": 6853.2980057142495,
      "eccentricity": 0.00013301,
      "inclination_deg": 53.1599,
      "raan_deg": 215.6654,
      "arg_perigee_deg": 68.2328,
      "mean_anomaly_deg": 291.8815,
      "mean_motion_rev_day": 15.30218107
    },
    {
      "epoch": "2026-04-05T13:30:28.077408Z",
      "apogee_km": 476.45182070783085,
      "perigee_km": 473.87223895300303,
      "latitude_deg": 3.511084367409214e-05,
      "longitude_deg": 174.3274985419077,
      "height_km": 477.2421534723358,
      "semi_major_axis_km": 6853.299029830417,
      "eccentricity": 0.0001882,
      "inclination_deg": 53.1598,
      "raan_deg": 210.8111,
      "arg_perigee_deg": 156.3431,
      "mean_anomaly_deg": 203.7657,
      "mean_motion_rev_day": 15.30217764
    },
    {
      "epoch": "2026-04-05T16:38:34.693440Z",
      "apogee_km": 475.8832371914259,
      "perigee_km": 474.44541457325704,
      "latitude_deg": 6.224958117666555e-06,
      "longitude_deg": 126.56565308393805,
      "height_km": 476.067031856756,
      "semi_major_axis_km": 6853.301325882341,
      "eccentricity": 0.0001049,
      "inclination_deg": 53.1592,
      "raan_deg": 210.2056,
      "arg_perigee_deg": 90.3516,
      "mean_anomaly_deg": 269.7605,
      "mean_motion_rev_day": 15.30216995
    },
    {
      "epoch": "2026-04-06T00:28:50.398464Z",
      "apogee_km": 476.1745313254851,
      "perigee_km": 474.24065454824995,
      "latitude_deg": -2.6879041938682156e-05,
      "longitude_deg": 7.161807489637088,
      "height_km": 476.0836160534635,
      "semi_major_axis_km": 6853.344592936867,
      "eccentricity": 0.00014109,
      "inclination_deg": 53.1586,
      "raan_deg": 208.6891,
      "arg_perigee_deg": 88.7133,
      "mean_anomaly_deg": 271.4029,
      "mean_motion_rev_day": 15.30202504
    },
    {
      "epoch": "2026-04-07T14:06:07.038144Z",
      "apogee_km": 476.1429791363089,
      "perigee_km": 474.3515044954984,
      "latitude_deg": 2.8739597497556627e-05,
      "longitude_deg": 154.01346134509257,
      "height_km": 475.7706280698233,
      "semi_major_axis_km": 6853.384241815904,
      "eccentricity": 0.0001307,
      "inclination_deg": 53.1591,
      "raan_deg": 201.4051,
      "arg_perigee_deg": 65.2715,
      "mean_anomaly_deg": 294.8422,
      "mean_motion_rev_day": 15.30189225
    },
    {
      "epoch": "2026-04-07T17:14:13.558272Z",
      "apogee_km": 475.9801480467286,
      "perigee_km": 474.48611335823534,
      "latitude_deg": -7.196143758119438e-05,
      "longitude_deg": 106.25426292312609,
      "height_km": 475.84372633710126,
      "semi_major_axis_km": 6853.370130702482,
      "eccentricity": 0.000109,
      "inclination_deg": 53.1584,
      "raan_deg": 200.8019,
      "arg_perigee_deg": 67.3499,
      "mean_anomaly_deg": 292.7616,
      "mean_motion_rev_day": 15.30193951
    },
    {
      "epoch": "2026-04-08T13:36:55.075104Z",
      "apogee_km": 476.0196460344032,
      "perigee_km": 474.3958145340084,
      "latitude_deg": 5.7595679890695216e-05,
      "longitude_deg": 155.79676717663878,
      "height_km": 475.58227242986493,
      "semi_major_axis_km": 6853.344730284205,
      "eccentricity": 0.00011847,
      "inclination_deg": 53.1582,
      "raan_deg": 196.8542,
      "arg_perigee_deg": 49.8207,
      "mean_anomaly_deg": 310.2898,
      "mean_motion_rev_day": 15.30202458
    }
  ]
}